ONEWEB-0549             
1 56051U 23043F   25090.56817265  .00000038  00000+0  59471-4 0  9995
2 56051  87.9313 332.2425 0001651  67.2166 292.9142 13.21830708 99754
ONEWEB-0550             
1 56052U 23043G   25090.70695125 -.00000128  00000+0 -34184-3 0  9996
2 56052  87.9309 332.2124 0001911  80.6568 279.4781 13.21827770100689
ONEWEB-0551             
1 56053U 23043H   25090.42552493 -.00000005  00000+0 -46574-4 0  9997
2 56053  87.9125 347.4555 0001828  70.4471 289.6857 13.15548775 98185
ONEWEB-0552             
1 56054U 23043J   25090.62495038  .00000150  00000+0  33066-3 0  9991
2 56054  87.9309 332.2378 0001989  73.9397 286.1956 13.21823542 99760
ONEWEB-0553             
1 56055U 23043K   25090.57564087 -.00000028  00000+0 -10764-3 0  9993
2 56055  87.9060 317.0104 0001623  97.5769 262.5547 13.16593716100738
ONEWEB-0554             
1 56056U 23043L   25090.56297298  .00000022  00000+0  23072-4 0  9999
2 56056  87.9063 317.0413 0002268  85.4799 274.6591 13.16593439100713
ONEWEB-0555             
1 56057U 23043M   25090.60097560  .00000115  00000+0  26801-3 0  9990
2 56057  87.9058 316.9994 0001578 105.0808 255.0498 13.16594202100722
ONEWEB-0557             
1 56058U 23043N   25090.61521896  .00000113  00000+0  26157-3 0  9998
2 56058  87.9061 317.0205 0002129 111.3821 248.7538 13.16594256100725
